OPTICUBE 04             
1 41851U 16067D   19200.83259563  .00000332  00000-0  34329-4 0  9995
2 41851  97.9184 298.8219 0007183 284.5007  75.5417 14.96816782146577
AEROCUBE 8D             
1 41852U 16067E   19200.83720629  .00000088  00000-0  12985-4 0  9994
2 41852  97.9195 298.6518 0008014 284.4384  75.5948 14.96730707146550
AEROCUBE 8C             
1 41853U 16067F   19200.86085132 -.00000165  00000-0 -91136-5 0  9995
2 41853  97.9184 298.6098 0008811 284.4090  75.6152 14.96688471146559
PROMETHEUS 2-1          
1 41854U 16067G   19201.22475980  .00000798  00000-0  74762-4 0  9996
2 41854  97.9198 299.1258 0008540 282.0936  77.9328 14.96915092146610
PROMETHEUS 2-3          
1 41855U 16067H   19200.82592072  .00000765  00000-0  71873-4 0  9998
2 41855  97.9202 298.7391 0008721 284.2538  75.7714 14.96920389146556
INS-1B                  
1 41954U 17008G   19200.88134966  .00000681  00000-0  31017-4 0  9997
2 41954  97.3981 265.5126 0010298  44.3951 315.8110 15.23994889134550
BGUSAT                  
1 41999U 17008BD  19200.75542829  .00001168  00000-0  47929-4 0  9993
2 41999  97.4058 267.8877 0009583  57.7668 302.4498 15.26191810134031
DIDO-2                  
1 42000U 17008BE  19200.74025061  .00000492  00000-0  23253-4 0  9993
2 42000  97.3994 265.9222 0010007  61.5375 298.6869 15.23930583133938
PEASSS                  
1 42015U 17008BV  19200.74996975  .00000621  00000-0  27801-4 0  9997
2 42015  97.4003 266.9361 0007968  67.3654 292.8425 15.24902917134483
AL-FARABI 1             
1 42016U 17008BW  19200.60466633  .00000801  00000-0  34421-4 0  9992
2 42016  97.4019 267.3685 0007802  67.3099 292.8963 15.25547538134612
NAYIF-1 (EO-88)         
1 42017U 17008BX  19200.65709533  .00000812  00000-0  34803-4 0  9993
2 42017  97.4015 267.4307 0007771  67.5552 292.6509 15.25580977134643
ALTAIR PATHFINDER       
1 42711U 98067LS  19201.18655095  .00026620  00000-0  12680-3 0  9993
2 42711  51.6337 126.1951 0000464 248.2207 111.8747 15.82668435124077
NJUST-1                 
1 42722U 98067MB  19200.81951183  .02180421  12163-4  38752-3 0  9998
2 42722  51.6308  99.6594 0007913 261.7730 213.5167 16.31776014123456
NSIGHT                  
1 42726U 98067MF  19201.11813316  .00013561  00000-0  10449-3 0  9995
2 42726  51.6356 147.8478 0003554 307.0728  52.9945 15.72324418122761
UCLSAT                  
1 42765U 17036A   19200.81627737  .00000642  00000-0  30390-4 0  9995
2 42765  97.3489 258.1586 0013102 116.9113 243.3464 15.22782462115798
LITUANICASAT-2          
1 42768U 17036D   19200.72820546  .00001186  00000-0  53451-4 0  9998
2 42768  97.3525 257.6911 0016862 109.3782 250.9279 15.22863064115035
AALTO-1                 
1 42775U 17036L   19200.83910329  .00000432  00000-0  22275-4 0  9990
2 42775  97.3473 256.8581 0015668 109.1883 251.1050 15.21364875114946
URSA MAIOR              
1 42776U 17036M   19201.19174712  .00000481  00000-0  24349-4 0  9997
2 42776  97.3482 257.3600 0015506 108.0556 252.2371 15.21499951115001
COMPASS 2               
1 42777U 17036N   19201.13880979  .00000952  00000-0  43422-4 0  9997
2 42777  97.3522 258.5563 0014280 108.8119 251.4668 15.22947325115058
DIAMOND RED             
1 42783U 17036U   19200.87269322  .00000554  00000-0  27053-4 0  9997
2 42783  97.3489 257.7907 0013763 117.9136 242.3496 15.22233631114993
PEGASUS                 
1 42784U 17036V   19200.58289451  .00000633  00000-0  30209-4 0  9996
2 42784  97.3494 257.7415 0013636 118.3659 241.8954 15.22529365114960
DIAMOND GREEN           
1 42785U 17036W   19200.74001155  .00000560  00000-0  27288-4 0  9990
2 42785  97.3492 257.6859 0013647 118.8087 241.4522 15.22234116115046
DIAMOND BLUE            
1 42786U 17036X   19200.73916011  .00000562  00000-0  27381-4 0  9992
2 42786  97.3492 257.6831 0013484 118.9868 241.2722 15.22231512115041
NUDTSAT                 
1 42787U 17036Y   19200.88960881  .00001205  00000-0  53318-4 0  9997
2 42787  97.3523 258.7689 0011944 110.8716 249.3803 15.23510520114893
SUCHAI                  
1 42788U 17036Z   19200.58156237  .00000761  00000-0  35299-4 0  9991
2 42788  97.3499 258.0597 0013221 117.4768 242.7815 15.22950930115058
SKCUBE                  
1 42789U 17036AA  19200.86219906  .00000695  00000-0  32609-4 0  9994
2 42789  97.3494 258.2714 0013095 116.6873 243.5706 15.22848799115017
VZLUSAT-1               
1 42790U 17036AB  19200.87646868  .00000895  00000-0  40350-4 0  9992
2 42790  97.3509 258.7596 0012698 115.7055 244.5495 15.23506151115042
ROBUSTA-1B              
1 42792U 17036AD  19200.85536784  .00000759  00000-0  35147-4 0  9994
2 42792  97.3495 258.4199 0012674 117.2140 243.0390 15.23017069115032
CICERO 6                
1 42793U 17036AE  19200.72623198  .00000500  00000-0  24455-4 0  9991
2 42793  97.3478 258.0553 0011871 118.8559 241.3870 15.22604536115071
D-SAT                   
1 42794U 17036AF  19200.60956896  .00000173  00000-0  20293-4 0  9995
2 42794  97.5371 243.9478 0127480  39.2200 321.8170 14.91108857112948
CORVUS BC2              
1 42846U 17042X   19200.59690696  .00000124  00000-0  17519-4 0  9994
2 42846  97.5623  93.3627 0008593 319.6993  40.3589 14.91981744109628
CORVUS BC1              
1 42847U 17042Y   19201.15162913 -.00000105  00000-0 -50639-5 0  9996
2 42847  97.5624  94.0066 0008143 317.5556  42.5033 14.92082039109705
MIRATA                  
1 43015U 17073C   19201.00934768  .00000896  00000-0  74472-4 0  9992
2 43015  97.7186 121.0025 0256735  55.9085 306.6204 14.79013762 89923
MAKERSAT 0              
1 43016U 17073D   19200.75801110  .00000605  00000-0  51953-4 0  9995
2 43016  97.7219 120.9621 0258885  57.1290 305.4553 14.78758112 89873
ASTERIA                 
1 43020U 98067NH  19201.15543179  .00012022  00000-0  96508-4 0  9996
2 43020  51.6423 158.8276 0000861 236.3838 123.7078 15.71477413 94806
DELLINGR (RBLE)         
1 43021U 98067NJ  19201.16210343  .00004931  00000-0  57963-4 0  9994
2 43021  51.6374 173.0158 0001496 212.1814 147.9090 15.63483003 94615
AEROCUBE 7B (OCSD B)    
1 43042U 17071F   19201.21107575  .00001248  00000-0  39142-4 0  9998
2 43042  51.6392 258.8094 0004152 269.6674  90.3835 15.41323185 90942
AEROCUBE 7C (OCSD C)    
1 43043U 17071G   19201.21106735  .00001467  00000-0  44298-4 0  9997
2 43043  51.6392 258.8233 0004401 274.4554  85.5929 15.41325046 90911
CHEFSAT                 
1 43044U 17071H   19200.69370805  .00003520  00000-0  84928-4 0  9996
2 43044  51.6376 255.4948 0004308 271.1368  88.9125 15.44036426 90912
ASGARDIA 1              
1 43049U 17071N   19200.64182335  .00001298  00000-0  40140-4 0  9993
2 43049  51.6401 261.0544 0001970 293.0149  67.0628 15.41444444 90829
ISARA                   
1 43050U 17071P   19200.65466152  .00002284  00000-0  59225-4 0  9998
2 43050  51.6374 256.6886 0001896 291.0212  69.0571 15.43543349 90897
PROPCUBE 2 (FAUNA)      
1 43052U 17071R   19200.70670272  .00001379  00000-0  41658-4 0  9991
2 43052  51.6399 260.0058 0001893 288.0217  72.0562 15.41730609 90848
CORVUS BC3              
1 43118U 18004H   19200.81715735  .00000441  00000-0  21868-4 0  9997
2 43118  97.4850 268.0701 0011609 136.5512 223.6641 15.22872332 84210
MICROMAS-2A             
1 43131U 18004W   19201.19110060  .00001002  00000-0  44078-4 0  9996
2 43131  97.4876 269.2021 0010626 136.1866 224.0216 15.24183252 84319
CICERO 7                
1 43143U 18004AJ  19200.81791078  .00000885  00000-0  39166-4 0  9991
2 43143  97.4863 269.0442 0008533 143.9380 216.2434 15.24309094 84278
GOMX-4B                 
1 43196U 18015E   19200.89305766  .00000237  00000-0  12722-4 0  9994
2 43196  97.3946 327.9997 0018228 194.5765 165.4949 15.23964911 81094
GOMX-4A                 
1 43197U 18015F   19201.08543407  .00000265  00000-0  13844-4 0  9990
2 43197  97.3968 328.2175 0018720 193.2822 252.4865 15.24059740 81133
1KUNS-PF                
1 43466U 98067NP  19201.17099472  .00011913  00000-0  11454-3 0  9998
2 43466  51.6360 174.5416 0000508  44.4770 315.6267 15.67052930 67857
UBAKUSAT                
1 43467U 98067NQ  19201.18781792  .00006800  00000-0  78237-4 0  9995
2 43467  51.6361 179.1576 0001749 171.1894 188.9132 15.63317661 67808
BATSU-CS1 (IRAZU)       
1 43468U 98067NR  19201.16365407  .00017669  00000-0  14684-3 0  9995
2 43468  51.6351 170.7107 0000911  41.3237 318.7829 15.70253954167892
CUBERRT                 
1 43546U 98067NU  19201.18101717  .00009062  00000-0  93624-4 0  9996
2 43546  51.6370 179.8609 0003442 260.5828  99.4778 15.65603628 57929
TEMPEST-D               
1 43547U 98067NV  19200.51451613  .00002143  00000-0  34396-4 0  9990
2 43547  51.6372 191.9130 0005036 240.0371 120.0122 15.58205893 57381
RAINCUBE                
1 43548U 98067NW  19200.57061642  .00006318  00000-0  77024-4 0  9999
2 43548  51.6353 187.0200 0004475 254.9917 105.0582 15.61945189 57905
HALOSAT                 
1 43549U 98067NX  19200.44751261  .00004581  00000-0  57690-4 0  9996
2 43549  51.6364 187.7112 0004569 257.6301 102.4182 15.61862639 57442
ENDUROSAT ONE           
1 43551U 98067NZ  19200.43807020  .00008477  00000-0  95328-4 0  9991
2 43551  51.6361 185.4008 0004692 268.5119  91.5338 15.63524994 57886
EQUISAT                 
1 43552U 98067PA  19200.37930919  .00006803  00000-0  81715-4 0  9995
2 43552  51.6374 187.2821 0005118 264.7778  95.2632 15.62187304 57817
AEROCUBE 12A            
1 43556U 18046C   19200.63773920 -.00000042  00000-0  11176-4 0  9998
2 43556  51.6426 268.2041 0008442 177.5838 182.5184 15.28777397 56296
AEROCUBE 12B            
1 43557U 18046D   19200.65389568  .00000807  00000-0  41201-4 0  9992
2 43557  51.6426 268.3079 0008476 178.1873 181.9139 15.28643338 56247
UITMSAT-1               
1 43589U 98067PD  19200.37996383  .00007732  00000-0  91481-4 0  9995
2 43589  51.6347 187.9784 0004503 275.8173  84.2308 15.62349808 53544
